ONEWEB-0210             
1 48787U 21045W   25012.69176610 -.00000016  00000+0 -75809-4 0  9993
2 48787  87.9070   2.8079 0001016  94.7188 265.4058 13.15547062175881
ONEWEB-0214             
1 48788U 21045X   25012.70127407  .00000024  00000+0  30142-4 0  9994
2 48788  87.9069   2.7950 0001249  83.4453 276.6820 13.15546278175851
ONEWEB-0221             
1 48789U 21045Y   25012.85972930  .00000024  00000+0  29414-4 0  9990
2 48789  87.9075   2.7873 0001735  94.4738 265.6590 13.15547079175965
ONEWEB-0213             
1 48790U 21045Z   25013.00075543 -.00000128  00000+0 -37294-3 0  9995
2 48790  87.9073   2.7692 0001534  93.5464 266.5842 13.15548015177173
ONEWEB-0212             
1 48791U 21045AA  25012.52144015 -.00000088  00000+0 -26690-3 0  9996
2 48791  87.9075   2.8514 0001814  88.3406 271.7932 13.15548322175974
ONEWEB-0227             
1 48792U 21045AB  25012.67274425  .00000103  00000+0  24010-3 0  9992
2 48792  87.9073   2.8349 0001722  91.9025 268.2302 13.15546899175940
ONEWEB-0226             
1 48793U 21045AC  25012.66640684  .00000166  00000+0  40561-3 0  9994
2 48793  87.9073   2.8413 0001345  92.5242 267.6042 13.15546774175915
ONEWEB-0224             
1 48794U 21045AD  25012.70601940  .00000140  00000+0  33882-3 0  9992
2 48794  87.9076   2.8630 0002420 109.7473 250.3918 13.15547220175842
